{
  "type": "FeatureCollection",
  "features": [
    {
      "type": "Feature",
      "properties": {
        "norad_id": 34459,
        "name": "COSMOS 2251 DEB",
        "group": "cosmos-2251-debris",
        "lat": 59.70822894365942,
        "lon": 62.71346827067854,
        "alt_km": 977.8323281500961,
        "timestamp": "2025-12-02T08:59:33.109157+00:00",
        "meta_object_name": "COSMOS 2251 DEB",
        "meta_object_id": "1993-036TC",
        "meta_epoch": "2025-12-01T20:26:41.410752",
        "meta_mean_motion": 14.00463848,
        "meta_eccentricity": 0.0191841,
        "meta_inclination": 74.0791,
        "meta_ra_of_asc_node": 272.8664,
        "meta_arg_of_pericenter": 345.1217,
        "meta_mean_anomaly": 14.4317,
        "meta_ephemeris_type": 0,
        "meta_classification_type": "U",
        "meta_norad_cat_id": 34459,
        "meta_element_set_no": 999,
        "meta_rev_at_epoch": 85559,
        "meta_bstar": 0.00064506,
        "meta_mean_motion_dot": 1.098e-05,
        "meta_mean_motion_ddot": 0,
        "tle_line1": "1 34459U 93036TC  25335.85186818  .00001098  00000+0  64506-3 0  9990",
        "tle_line2": "2 34459  74.0791 272.8664 0191841 345.1217  14.4317 14.00463848855597"
      },
      "geometry": {
        "type": "Point",
        "coordinates": [
          62.71346827067854,
          59.70822894365942
        ]
      }
    },
    {
      "type": "Feature",
      "properties": {
        "norad_id": 34464,
        "name": "COSMOS 2251 DEB",
        "group": "cosmos-2251-debris",
        "lat": -70.24785466774148,
        "lon": -26.64301350190809,
        "alt_km": 486.69521431303474,
        "timestamp": "2025-12-02T08:59:33.109166+00:00",
        "meta_object_name": "COSMOS 2251 DEB",
        "meta_object_id": "1993-036TH",
        "meta_epoch": "2025-12-01T17:41:19.975200",
        "meta_mean_motion": 15.2460297,
        "meta_eccentricity": 0.0017669,
        "meta_inclination": 73.9897,
        "meta_ra_of_asc_node": 101.6087,
        "meta_arg_of_pericenter": 270.4716,
        "meta_mean_anomaly": 89.4459,
        "meta_ephemeris_type": 0,
        "meta_classification_type": "U",
        "meta_norad_cat_id": 34464,
        "meta_element_set_no": 999,
        "meta_rev_at_epoch": 89672,
        "meta_bstar": 0.0029264,
        "meta_mean_motion_dot": 0.00073186,
        "meta_mean_motion_ddot": 0,
        "tle_line1": "1 34464U 93036TH  25335.73703675  .00073186  00000+0  29264-2 0  9997",
        "tle_line2": "2 34464  73.9897 101.6087 0017669 270.4716  89.4459 15.24602970896722"
      },
      "geometry": {
        "type": "Point",
        "coordinates": [
          -26.64301350190809,
          -70.24785466774148
        ]
      }
    },
    {
      "type": "Feature",
      "properties": {
        "norad_id": 34468,
        "name": "COSMOS 2251 DEB",
        "group": "cosmos-2251-debris",
        "lat": 18.34348312310372,
        "lon": -48.832866968691924,
        "alt_km": 762.6502654087417,
        "timestamp": "2025-12-02T08:59:33.109176+00:00",
        "meta_object_name": "COSMOS 2251 DEB",
        "meta_object_id": "1993-036TM",
        "meta_epoch": "2025-12-01T15:39:31.936608",
        "meta_mean_motion": 14.47577624,
        "meta_eccentricity": 0.0076284,
        "meta_inclination": 74.0112,
        "meta_ra_of_asc_node": 137.9748,
        "meta_arg_of_pericenter": 285.1383,
        "meta_mean_anomaly": 74.1346,
        "meta_ephemeris_type": 0,
        "meta_classification_type": "U",
        "meta_norad_cat_id": 34468,
        "meta_element_set_no": 999,
        "meta_rev_at_epoch": 88301,
        "meta_bstar": 0.00032153,
        "meta_mean_motion_dot": 1.198e-05,
        "meta_mean_motion_ddot": 0,
        "tle_line1": "1 34468U 93036TM  25335.65245297  .00001198  00000+0  32153-3 0  9999",
        "tle_line2": "2 34468  74.0112 137.9748 0076284 285.1383  74.1346 14.47577624883010"
      },
      "geometry": {
        "type": "Point",
        "coordinates": [
          -48.832866968691924,
          18.34348312310372
        ]
      }
    },
    {
      "type": "Feature",
      "properties": {
        "norad_id": 34472,
        "name": "COSMOS 2251 DEB",
        "group": "cosmos-2251-debris",
        "lat": -3.4958070900100715,
        "lon": -63.80586583918987,
        "alt_km": 892.5674667911953,
        "timestamp": "2025-12-02T08:59:33.109187+00:00",
        "meta_object_name": "COSMOS 2251 DEB",
        "meta_object_id": "1993-036TR",
        "meta_epoch": "2025-11-30T08:45:33.274080",
        "meta_mean_motion": 13.70299802,
        "meta_eccentricity": 0.03272305,
        "meta_inclination": 74.0853,
        "meta_ra_of_asc_node": 118.499,
        "meta_arg_of_pericenter": 252.162,
        "meta_mean_anomaly": 104.3557,
        "meta_ephemeris_type": 0,
        "meta_classification_type": "U",
        "meta_norad_cat_id": 34472,
        "meta_element_set_no": 999,
        "meta_rev_at_epoch": 83557,
        "meta_bstar": 0.0011470938,
        "meta_mean_motion_dot": 1.453e-05,
        "meta_mean_motion_ddot": 0,
        "tle_line1": "1 34472U 93036TR  25334.36496845  .00001453  00000+0  11471-2 0  9991",
        "tle_line2": "2 34472  74.0853 118.4990 0327230 252.1620 104.3557 13.70299802835570"
      },
      "geometry": {
        "type": "Point",
        "coordinates": [
          -63.80586583918987,
          -3.4958070900100715
        ]
      }
    },
    {
      "type": "Feature",
      "properties": {
        "norad_id": 34474,
        "name": "COSMOS 2251 DEB",
        "group": "cosmos-2251-debris",
        "lat": 53.61905986554195,
        "lon": 7.067208351610702,
        "alt_km": 723.5660456157984,
        "timestamp": "2025-12-02T08:59:33.109197+00:00",
        "meta_object_name": "COSMOS 2251 DEB",
        "meta_object_id": "1993-036TT",
        "meta_epoch": "2025-12-02T02:12:14.270112",
        "meta_mean_motion": 14.0630808,
        "meta_eccentricity": 0.0197711,
        "meta_inclination": 74.0785,
        "meta_ra_of_asc_node": 344.7657,
        "meta_arg_of_pericenter": 61.3569,
        "meta_mean_anomaly": 4.2415,
        "meta_ephemeris_type": 0,
        "meta_classification_type": "U",
        "meta_norad_cat_id": 34474,
        "meta_element_set_no": 999,
        "meta_rev_at_epoch": 85359,
        "meta_bstar": 0.0017121,
        "meta_mean_motion_dot": 3.347e-05,
        "meta_mean_motion_ddot": 0,
        "tle_line1": "1 34474U 93036TT  25336.09183183  .00003347  00000+0  17121-2 0  9995",
        "tle_line2": "2 34474  74.0785 344.7657 0197711  61.3569   4.2415 14.06308080853593"
      },
      "geometry": {
        "type": "Point",
        "coordinates": [
          7.067208351610702,
          53.61905986554195
        ]
      }
    },
    {
      "type": "Feature",
      "properties": {
        "norad_id": 34476,
        "name": "COSMOS 2251 DEB",
        "group": "cosmos-2251-debris",
        "lat": -33.68253109832059,
        "lon": -69.00703462250341,
        "alt_km": 1023.4074770567531,
        "timestamp": "2025-12-02T08:59:33.109207+00:00",
        "meta_object_name": "COSMOS 2251 DEB",
        "meta_object_id": "1993-036TV",
        "meta_epoch": "2025-12-01T09:20:26.803104",
        "meta_mean_motion": 13.81864816,
        "meta_eccentricity": 0.0318741,
        "meta_inclination": 74.0058,
        "meta_ra_of_asc_node": 101.6327,
        "meta_arg_of_pericenter": 323.7354,
        "meta_mean_anomaly": 34.2529,
        "meta_ephemeris_type": 0,
        "meta_classification_type": "U",
        "meta_norad_cat_id": 34476,
        "meta_element_set_no": 999,
        "meta_rev_at_epoch": 83481,
        "meta_bstar": 0.0030092445,
        "meta_mean_motion_dot": 4.729e-05,
        "meta_mean_motion_ddot": 0,
        "tle_line1": "1 34476U 93036TV  25335.38919911  .00004729  00000+0  30092-2 0  9991",
        "tle_line2": "2 34476  74.0058 101.6327 0318741 323.7354  34.2529 13.81864816834816"
      },
      "geometry": {
        "type": "Point",
        "coordinates": [
          -69.00703462250341,
          -33.68253109832059
        ]
      }
    },
    {
      "type": "Feature",
      "properties": {
        "norad_id": 34477,
        "name": "COSMOS 2251 DEB",
        "group": "cosmos-2251-debris",
        "lat": -20.914817321227122,
        "lon": -84.44539227264407,
        "alt_km": 695.63357278283,
        "timestamp": "2025-12-02T08:59:33.109217+00:00",
        "meta_object_name": "COSMOS 2251 DEB",
        "meta_object_id": "1993-036TW",
        "meta_epoch": "2025-12-02T02:17:21.620832",
        "meta_mean_motion": 14.56728064,
        "meta_eccentricity": 0.0076857,
        "meta_inclination": 73.9782,
        "meta_ra_of_asc_node": 89.782,
        "meta_arg_of_pericenter": 278.8737,
        "meta_mean_anomaly": 259.5607,
        "meta_ephemeris_type": 0,
        "meta_classification_type": "U",
        "meta_norad_cat_id": 34477,
        "meta_element_set_no": 999,
        "meta_rev_at_epoch": 88470,
        "meta_bstar": 0.0010223,
        "meta_mean_motion_dot": 4.728e-05,
        "meta_mean_motion_ddot": 0,
        "tle_line1": "1 34477U 93036TW  25336.09538913  .00004728  00000+0  10223-2 0  9993",
        "tle_line2": "2 34477  73.9782  89.7820 0076857 278.8737 259.5607 14.56728064884706"
      },
      "geometry": {
        "type": "Point",
        "coordinates": [
          -84.44539227264407,
          -20.914817321227122
        ]
      }
    }
  ]
}